[Satellite]
VERSION=1.1
NAME=RASAT
NICKNAME=RASAT
TLE1=1 37791U 11044D   17186.23465284  .00000026  00000-0  14025-4 0  9998
TLE2=2 37791  98.1358 277.9415 0023156  65.6539 294.7085 14.64608551314417
